CTC2_L_00134001-01
1 10000U 24326FM  26075.70041667  .00000000  00000+0  00000-0 0  9998
2 10000  80.0000   0.0000 0000000   0.0000   0.0000 13.03091871    15
CTC2_L_00134001-02
1 10001U 26479SU  26075.70041667  .00000000  00000+0  00000-0 0  9990
2 10001  80.0000   0.0000 0000000   0.0000  90.0000 13.03091871    15
CTC2_L_00134001-03
1 10002U 24863JX  26075.70041667  .00000000  00000+0  00000-0 0  9996
2 10002  80.0000   0.0000 0000000   0.0000 180.0000 13.03091871    16
CTC2_L_00134001-04
1 10003U 23153BF  26075.70041667  .00000000  00000+0  00000-0 0  9998
2 10003  80.0000   0.0000 0000000   0.0000 270.0000 13.03091871    17
CTC2_L_00134002-01
1 10004U 22494FD  26075.70041667  .00000000  00000+0  00000-0 0  9996
2 10004  80.0000  12.0000 0000000   0.0000  12.0000 13.03091871    15
CTC2_L_00134002-02
1 10005U 23707GA  26075.70041667  .00000000  00000+0  00000-0 0  9995
2 10005  80.0000  12.0000 0000000   0.0000 102.0000 13.03091871    16
CTC2_L_00134002-03
1 10006U 24041IR  26075.70041667  .00000000  00000+0  00000-0 0  9998
2 10006  80.0000  12.0000 0000000   0.0000 192.0000 13.03091871    16
CTC2_L_00134002-04
1 10007U 24552IO  26075.70041667  .00000000  00000+0  00000-0 0  9996
2 10007  80.0000  12.0000 0000000   0.0000 282.0000 13.03091871    17
CTC2_L_00134003-01
1 10008U 22991KX  26075.70041667  .00000000  00000+0  00000-0 0  9992
2 10008  80.0000  24.0000 0000000   0.0000  24.0000 13.03091871    15
CTC2_L_00134003-02
1 10009U 26958MM  26075.70041667  .00000000  00000+0  00000-0 0  9990
2 10009  80.0000  24.0000 0000000   0.0000 114.0000 13.03091871    16
CTC2_L_00134003-03
1 10010U 23473YN  26075.70041667  .00000000  00000+0  00000-0 0  9991
2 10010  80.0000  24.0000 0000000   0.0000 204.0000 13.03091871    18
CTC2_L_00134003-04
1 10011U 25990ZW  26075.70041667  .00000000  00000+0  00000-0 0  9998
2 10011  80.0000  24.0000 0000000   0.0000 294.0000 13.03091871    18
CTC2_L_00134004-01
1 10012U 26140BO  26075.70041667  .00000000  00000+0  00000-0 0  9997
2 10012  80.0000  36.0000 0000000   0.0000  36.0000 13.03091871    16
CTC2_L_00134004-02
1 10013U 25928PG  26075.70041667  .00000000  00000+0  00000-0 0  9991
2 10013  80.0000  36.0000 0000000   0.0000 126.0000 13.03091871    17
CTC2_L_00134004-03
1 10014U 24928TO  26075.70041667  .00000000  00000+0  00000-0 0  9991
2 10014  80.0000  36.0000 0000000   0.0000 216.0000 13.03091871    18
CTC2_L_00134004-04
1 10015U 24663WT  26075.70041667  .00000000  00000+0  00000-0 0  9998
2 10015  80.0000  36.0000 0000000   0.0000 306.0000 13.03091871    19
CTC2_L_00134005-01
1 10016U 23767PM  26075.70041667  .00000000  00000+0  00000-0 0  9993
2 10016  80.0000  48.0000 0000000   0.0000  48.0000 13.03091871    16
CTC2_L_00134005-02
1 10017U 24188XZ  26075.70041667  .00000000  00000+0  00000-0 0  9992
2 10017  80.0000  48.0000 0000000   0.0000 138.0000 13.03091871    17
CTC2_L_00134005-03
1 10018U 23345IN  26075.70041667  .00000000  00000+0  00000-0 0  9997
2 10018  80.0000  48.0000 0000000   0.0000 228.0000 13.03091871    18
CTC2_L_00134005-04
1 10019U 25225HP  26075.70041667  .00000000  00000+0  00000-0 0  9997
2 10019  80.0000  48.0000 0000000   0.0000 318.0000 13.03091871    19
CTC2_L_00134006-01
1 10020U 26347FK  26075.70041667  .00000000  00000+0  00000-0 0  9995
2 10020  80.0000  60.0000 0000000   0.0000  60.0000 13.03091871    19
CTC2_L_00134006-02
1 10021U 23448AR  26075.70041667  .00000000  00000+0  00000-0 0  9995
2 10021  80.0000  60.0000 0000000   0.0000 150.0000 13.03091871    10
CTC2_L_00134006-03
1 10022U 26181LJ  26075.70041667  .00000000  00000+0  00000-0 0  9993
2 10022  80.0000  60.0000 0000000   0.0000 240.0000 13.03091871    11
CTC2_L_00134006-04
1 10023U 25005PK  26075.70041667  .00000000  00000+0  00000-0 0  9998
2 10023  80.0000  60.0000 0000000   0.0000 330.0000 13.03091871    12
CTC2_L_00134007-01
1 10024U 23082UE  26075.70041667  .00000000  00000+0  00000-0 0  9992
2 10024  80.0000  72.0000 0000000   0.0000  72.0000 13.03091871    19
CTC2_L_00134007-02
1 10025U 25230JI  26075.70041667  .00000000  00000+0  00000-0 0  9990
2 10025  80.0000  72.0000 0000000   0.0000 162.0000 13.03091871    10
CTC2_L_00134007-03
1 10026U 23016HY  26075.70041667  .00000000  00000+0  00000-0 0  9991
2 10026  80.0000  72.0000 0000000   0.0000 252.0000 13.03091871    11
CTC2_L_00134007-04
1 10027U 26017VE  26075.70041667  .00000000  00000+0  00000-0 0  9996
2 10027  80.0000  72.0000 0000000   0.0000 342.0000 13.03091871    12
CTC2_L_00134008-01
1 10028U 24742J   26075.70041667  .00000000  00000+0  00000-0 0  9990
2 10028  80.0000  84.0000 0000000   0.0000  84.0000 13.03091871    19
CTC2_L_00134008-02
1 10029U 23521YK  26075.70041667  .00000000  00000+0  00000-0 0  9995
2 10029  80.0000  84.0000 0000000   0.0000 174.0000 13.03091871    10
CTC2_L_00134008-03
1 10030U 23049QQ  26075.70041667  .00000000  00000+0  00000-0 0  9992
2 10030  80.0000  84.0000 0000000   0.0000 264.0000 13.03091871    12
CTC2_L_00134008-04
1 10031U 24134AI  26075.70041667  .00000000  00000+0  00000-0 0  9999
2 10031  80.0000  84.0000 0000000   0.0000 354.0000 13.03091871    13
CTC2_L_00134009-01
1 10032U 24775KG  26075.70041667  .00000000  00000+0  00000-0 0  9991
2 10032  80.0000  96.0000 0000000   0.0000  96.0000 13.03091871    10
CTC2_L_00134009-02
1 10033U 24258XG  26075.70041667  .00000000  00000+0  00000-0 0  9998
2 10033  80.0000  96.0000 0000000   0.0000 186.0000 13.03091871    11
CTC2_L_00134009-03
1 10034U 23358RL  26075.70041667  .00000000  00000+0  00000-0 0  9999
2 10034  80.0000  96.0000 0000000   0.0000 276.0000 13.03091871    12
CTC2_L_00134009-04
1 10035U 26214HC  26075.70041667  .00000000  00000+0  00000-0 0  9994
2 10035  80.0000  96.0000 0000000   0.0000   6.0000 13.03091871    14
CTC2_L_00134010-01
1 10036U 25835IC  26075.70041667  .00000000  00000+0  00000-0 0  9993
2 10036  80.0000 108.0000 0000000   0.0000 108.0000 13.03091871    12
CTC2_L_00134010-02
1 10037U 22679QH  26075.70041667  .00000000  00000+0  00000-0 0  9997
2 10037  80.0000 108.0000 0000000   0.0000 198.0000 13.03091871    12
CTC2_L_00134010-03
1 10038U 24409KC  26075.70041667  .00000000  00000+0  00000-0 0  9991
2 10038  80.0000 108.0000 0000000   0.0000 288.0000 13.03091871    13
CTC2_L_00134010-04
1 10039U 23003YY  26075.70041667  .00000000  00000+0  00000-0 0  9991
2 10039  80.0000 108.0000 0000000   0.0000  18.0000 13.03091871    15
CTC2_L_00134011-01
1 10040U 25905TP  26075.70041667  .00000000  00000+0  00000-0 0  9996
2 10040  80.0000 120.0000 0000000   0.0000 120.0000 13.03091871    15
CTC2_L_00134011-02
1 10041U 23154LY  26075.70041667  .00000000  00000+0  00000-0 0  9991
2 10041  80.0000 120.0000 0000000   0.0000 210.0000 13.03091871    16
CTC2_L_00134011-03
1 10042U 24983YD  26075.70041667  .00000000  00000+0  00000-0 0  9993
2 10042  80.0000 120.0000 0000000   0.0000 300.0000 13.03091871    17
CTC2_L_00134011-04
1 10043U 23157QO  26075.70041667  .00000000  00000+0  00000-0 0  9996
2 10043  80.0000 120.0000 0000000   0.0000  30.0000 13.03091871    18
CTC2_L_00134012-01
1 10044U 25622QP  26075.70041667  .00000000  00000+0  00000-0 0  9996
2 10044  80.0000 132.0000 0000000   0.0000 132.0000 13.03091871    15
CTC2_L_00134012-02
1 10045U 24578JP  26075.70041667  .00000000  00000+0  00000-0 0  9996
2 10045  80.0000 132.0000 0000000   0.0000 222.0000 13.03091871    16
CTC2_L_00134012-03
1 10046U 25623WS  26075.70041667  .00000000  00000+0  00000-0 0  9999
2 10046  80.0000 132.0000 0000000   0.0000 312.0000 13.03091871    17
CTC2_L_00134012-04
1 10047U 24075NR  26075.70041667  .00000000  00000+0  00000-0 0  9990
2 10047  80.0000 132.0000 0000000   0.0000  42.0000 13.03091871    18
CTC2_L_00134013-01
1 10048U 23895KN  26075.70041667  .00000000  00000+0  00000-0 0  9990
2 10048  80.0000 144.0000 0000000   0.0000 144.0000 13.03091871    15
CTC2_L_00134013-02
1 10049U 22649TM  26075.70041667  .00000000  00000+0  00000-0 0  9997
2 10049  80.0000 144.0000 0000000   0.0000 234.0000 13.03091871    16
CTC2_L_00134013-03
1 10050U 26865RZ  26075.70041667  .00000000  00000+0  00000-0 0  9993
2 10050  80.0000 144.0000 0000000   0.0000 324.0000 13.03091871    18
CTC2_L_00134013-04
1 10051U 26264AT  26075.70041667  .00000000  00000+0  00000-0 0  9997
2 10051  80.0000 144.0000 0000000   0.0000  54.0000 13.03091871    19
CTC2_L_00134014-01
1 10052U 22451BS  26075.70041667  .00000000  00000+0  00000-0 0  9992
2 10052  80.0000 156.0000 0000000   0.0000 156.0000 13.03091871    16
CTC2_L_00134014-02
1 10053U 26467OB  26075.70041667  .00000000  00000+0  00000-0 0  9994
2 10053  80.0000 156.0000 0000000   0.0000 246.0000 13.03091871    17
CTC2_L_00134014-03
1 10054U 26151VV  26075.70041667  .00000000  00000+0  00000-0 0  9995
2 10054  80.0000 156.0000 0000000   0.0000 336.0000 13.03091871    18
CTC2_L_00134014-04
1 10055U 25164LD  26075.70041667  .00000000  00000+0  00000-0 0  9999
2 10055  80.0000 156.0000 0000000   0.0000  66.0000 13.03091871    19
CTC2_L_00134015-01
1 10056U 25727FG  26075.70041667  .00000000  00000+0  00000-0 0  9995
2 10056  80.0000 168.0000 0000000   0.0000 168.0000 13.03091871    16
CTC2_L_00134015-02
1 10057U 26696CQ  26075.70041667  .00000000  00000+0  00000-0 0  9992
2 10057  80.0000 168.0000 0000000   0.0000 258.0000 13.03091871    17
CTC2_L_00134015-03
1 10058U 23324YI  26075.70041667  .00000000  00000+0  00000-0 0  9998
2 10058  80.0000 168.0000 0000000   0.0000 348.0000 13.03091871    18
CTC2_L_00134015-04
1 10059U 23116NE  26075.70041667  .00000000  00000+0  00000-0 0  9998
2 10059  80.0000 168.0000 0000000   0.0000  78.0000 13.03091871    19
CTC2_L_00134016-01
1 10060U 22372SC  26075.70041667  .00000000  00000+0  00000-0 0  9993
2 10060  80.0000 180.0000 0000000   0.0000 180.0000 13.03091871    19
CTC2_L_00134016-02
1 10061U 24941LN  26075.70041667  .00000000  00000+0  00000-0 0  9998
2 10061  80.0000 180.0000 0000000   0.0000 270.0000 13.03091871    10
